address,city,commercial,contact_person,estate_name,home,phone_number,plot,proprietor,rental
"DHA Phase 1, Lahore",Lahore,0,Mr Imran Ali,Property worth Real Estate Consultant,1,92324456529,1,Shahbaz Ali,1
"Super Highway, Karachi",Karachi,0,Mr Syed Waqar Ali,Ujala Builder & Developers,0,03312150877,3,Mr. Fareed,0
G-72 Colombus Tower Clifton Karachi,Karachi,0,Mr Amin Memon,Bayland Estate,0,03332372084,0,Amin Memon,0
"DHA Phase 6, Lahore",Lahore,0,Babar Ali,Trust Deals,0,03224443340,0,Babar Ali,1
"Defence Phase-2, Islamabad",Islamabad,0,Mr Nabeel Ahmed,Overseas Block Head Office (Blue World City),0,03479223399,1,Arshad Awan,0
", Lahore",Lahore,0,Miss Fiza Saeed,GlobBiz Avenue,0,03451006352,1,GBA,0
"Gulberg Town, Lahore",Lahore,0,Mrs Kiran Kamran,Globbiz Avenue,0,03451006351,1,GBA,0
"Office no: 09, Madina Market, Gulistan-e-johar, Block 09, Karachi",Karachi,0,Miss aania khan,MAK Real Estate,2,0334-270497,0,Muhammad Akif Khan,0
"Clifton, Karachi",Karachi,0,Mr Owais Siddiqui,House Tag,2,3092179942 ,0,Owais Siddiqui,0
"Defence Phase-2, Islamabad",Islamabad,0,Mr akhtar hussain jamali,Al-Basit Estate Link,2,03219000786,4,Akhtar Hussain Jamali,0
"Gulberg, Islamabad",Islamabad,2,Mr Arshad Mehmood,Shelters Real Estste,2,03138539288,14,M Azam Khan,0
Adyala Road Rawalpindi,Rawalpindi,0,Mr Ahmed Ahmed,A N Contructions,1,03219334868,0,Ahmed,0
"Shop # 5&6, Main Bismillah Chowk, Gulshan e Zia, Block 11 1/2,",Karachi,0,Mr Sajid Mumtaz,Al-Hamd Real Estate,0,0345-224819,0,Sajid Mumtaz,0
M Block NewCity Phase2,Wah,0,Mr siddique safdar,shah property marketing & Builders,0,03085101244,2,Adil Shah,0
"DHA (Defence), Lahore",Lahore,0,Mr IMRAN JAWAID,PRISM DECOR & REAL ESTATE,0,00923306873,0,IMRAN JAWAID,0
107-A,Lahore,0,Mr Asif Butt,Al-Arab Estate and Builders,35,03004323657,24,Asif Butt,0
"Faisal Town F-18, Islamabad",Islamabad,0,Mr Mubasher Yaseen,Al Hafiz Property Consultant,0,03335062348,8,Mubasher Yaseen,0
"Bahria Town, Lahore",Lahore,0,Mr Usama Naeem,Locations Property,0,03366757473,2,Usama,0
"Gulberg, Lahore",Lahore,0,Mr Kamran AssociatesÂ®,Kamran Associates,0,03004600322,0,Kamran Sohail,2
"Sohan Interchange, Service Road West, ISB",Islamabad,0,Mr Syed Saadat Hussain Shah,The Palm Residential Apartments,1,03321567760,0,Syed Farrukh Atiq,0
LG 5 Divine Center Airport Road Lahore,Lahore,1,Mr Muhammad Muzamil,Yasir Developer,0,03370657819,2,Ch Azam Ali,0
Sohan Interchange Service Road West Expressway Islamabad Pakistan,Islamabad,0,Mr Syed Saadat Hussain Shah,Multiplierz,5,03037774581,0,Syed Farrukh Atiq,0
"Bahria Enclave Islamabad, Islamabad",Islamabad,0,Mr raja sulemna,whiteco real estate marketing,0,03045611280,0,waheed farrukh,0
"Scheme-45, Karachi",Karachi,0,Mr Tabish Akbani,AARCO REAL INVESTMENT,0,03223372332,0,TABISH AKBANI,0
City Estate & Builders Zero Point Islamabad,Islamabad,2,Mr Arshad Mehmood,City Estate & Builders,5,03138539288,28,Tahir,0
"F-10, Islamabad",Islamabad,0,Mr Muhammad Tayyab,Al yousaf Real State & Builders,0,03335997832,0,Rana Ali Abid,0
"Gulshan-e-Maymar, Karachi",Karachi,0,Mr Zaheer Khan,verified marketing,0,03422225412,2,waqar,0
"DHA Phase 6, Lahore",Lahore,0,Mr Hassan Zaman,Summit Estate,0,03096666881,77,Khalid Khan,0
"Gulberg, Islamabad",Islamabad,3,Miss Rafia Malik,AlGhani Group,1,03125789319,0,Rizwan Ghani,0
"G-11, Islamabad",Islamabad,0,Mr Muhammad Sarosh,Multiply Associates Pvt. Ltd,0,0332-858194,1,Muhammad Sarosh,0
"Makran Coastal Highway, Gwadar",Gwadar,0,Shoaib,Globe Estate & Builders,0,00923000900112,1,Shoaib,0
shop no 31 hashoo terrace clifton block 5 karachi,Karachi,0,Mr ramzanali hussain,Dossani Estate,2,03322051514,0,Estate Agent,1
"Gulberg, Lahore",Lahore,0,Mr Muhammad Waqas,SA STAR MARKETING,0,03304131115,16,Hanif Khan,0
"Gulistan-e-Jauhar, Karachi",Karachi,0,Nasir,nasir estate,0,03158339408,0,Nasir,1
"Islamabad Highway, Islamabad",Islamabad,0,Mr Shaees Palm,PACE,14,+92303-7774,0,PALM,0
", Lahore",Lahore,1,Mr Raffat Hussain,Turab Marketing,0,0321-888111,4,Raffat Hussain,0
"F-10, Islamabad",Islamabad,0,Mr Nadeem jutt Khadim,al hamd enterprises,0,03008543240,0,rana muhammad  iqbal,0
"Askari XI, Lahore",Lahore,0,Mr COL Zahid Khan,Amaanat Associates,20,03214915491,0,COL Zahid Khan,0
"Sukh Chayn Gardens, Lahore",Lahore,0,Mr jamshed sohail,jubilee real estate and builders,0,03154797817,2,Hanif Qadri,0
"Eden Value Homes, Lahore",Lahore,0,Mr Bilal Ali,Builtz Empire,0,03134395521,0,Rizwan Manzoor,0
"Bahria Town, Lahore",Lahore,0,Mrs muhammad raees,MAKKAH ESTATE,0,+9203003692,0,MUHAMMAD RAEES,0
", Lahore",Lahore,0,Mr Muhammad Ejaz,Rafi & Sons Real Estate,4,+92-321-684,16,Muhammad Ejaz,1
", United Arab Emirates",United Arab Emirates,0,Mr Abdul Basit,Citiway Real Estate,0,00971 52 55,0,Abdul Basit,0
"We are Deal in Bahria Town Islamabad, DHA Islamabad, Gulberg Islamabad",Islamabad,0,Mr Syed Basit,AL-Syed,2,00923335700,5,Syed Basit Ali Gardezi,0
"G-11, Islamabad",Islamabad,2,Mr Muhammad Mansoor,Deal & Deals,0,03365817781,17,Muhammad Mansoor,0
", Islamabad",Islamabad,0,Mr Zulfiqar Ali,Zulfiqar Enterprises,0,03325307866,12,Zulfiqar Ali,0
"F-10, Islamabad",Islamabad,1,Mr Shawaiz khan,Paris Estate,0,+9233476761,0,Ch Saleem,0
"Chakri Road, Rawalpindi",Rawalpindi,0,Mr Abdullah City,Aziz Builders and Developers,0,03204065895,4,Asim Aziz,0
"7th Avenue, Islamabad",Islamabad,0,Mrs ayesha akram,fair deal marketing,0,03344666109,1,ch abdul rauf,0
", Islamabad",Islamabad,0,Mr Chaudhry Masood,Bluesky Enterprises,0,03155215786,2,Ch Masood,0
a1. 1st floor plot no 51-C 24th Commercial street tauheed comercial DHA 5,Karachi,0,Mr hamza khan,REMARK BUILDERS AND DEVOLIPERS,0,03452515024,0,Muhammad Ali Raj,1
M-1 Mezzanine Floor Plot No 11C 28th Commercial Street Thaueed Commercial Area DHA Phase 5 Karachi,Karachi,0,Mr Chaudhry Shahbaz Maqbool,Chaudhry Estate,0,03310338900,0,Chaudhry Shahbaz Maqbool,3
"Office No:1, 3rd Floor, Super Trade Centre, Above Meezan Bank, F-10 Markaz, Islamabad.",Islamabad,1,Mr khalid imran,ziyam properties,1,03330599393,2,khalid imran ch,3
"Sabzazar Scheme, Lahore",Lahore,0,Mr Adnan Alkhairi,Alkhair Traders,1,03009433219,0,Adnan Alkhairi,0
"Bahria Town, Lahore",Lahore,0,Mr Khalid Waheed,Z.K marketing,1,03366580771,0,Khalid Waheed,0
"DHA Phase 5, Lahore",Lahore,0,Rashid Jamil,RJ Associates,0,03214042433,0,Rashid Jamil,2
", Lahore",Lahore,0,Mr Nasir Malik,N M Associates,0,0321-846602,38,Nasir Malik,0
Bahria Heights V Bahria Town Phase VII,Rawalpindi,0,Mr NK Associates & Buiders NK,NK Associates & Builders,0,03315280256,0,Nazim,0
"Jewa Town, Lahore",Lahore,0,Mr Abdul Rauf,A R Enterprises,0,03004694644,0,abdul rauf,0
", Lahore",Lahore,0,"Mr Tayyib Wahla,",Gondal Group,0,0322-831600,45,"Tayyib Wahla,",0
", Lahore",Lahore,0,Mr Imran Yousaf,Yousaf Estate,0,0321-421770,11,Imran Yousaf,0
"G-11, Islamabad",Islamabad,0,Mr Bilal Ahmed,5G Properties (Pvt) Ltd,0,03335152353,0,M.Usman,0
"Civic Center Phase 4. Building 169, Mezzanine Floor",Islamabad,0,Mr RealOne One,RealOne,0,03476444420,4,RealOne,0
"Super Highway, Karachi",Karachi,0,Asad Ahmed,Asad Ahmed,0,03341211492,0,Asad Ahmed,1
"Ferozepur Road, Lahore",Lahore,0,Ch Habib Ur rehman,Mega Property Zone,0,03101020249,1,Ch Habib Ur rehman,0
"Office No 3, Second Floor, Bizzon Plaza, F-11 Markaz, Islamabad",Islamabad,0,Mr Base Marketing Pvt.Ltd,Base Group,4,03352226107,1,Amin Shaikhani,0
", Sialkot",Sialkot,0,Mr Muhammad Sohail,Five Star Group,0,0333-867875,10,M.Sohail,0
main Janha avinu 8 b commercial bahria town karachi,Karachi,0,Mr sajid sahil,Al-Falah Estate,1,03330302090,0,sajid sahil,0
lynxmarketing,Rawalpindi,0,Miss lynx marketing,lynxmarketing,0,03331972022,1,Shahid qadri,0
8-F Sarab center Main Boulevard wapda city Faisalabad,Faisalabad,0,Mr Al umer Estate,Alumer Estate,1,0300 793420,5,M.Ahmed Khan,0
"Bahria Enclave Islamabad, Islamabad",Islamabad,0,Mr AdiL BigDealsREB,Big Deals Real Estate & Builders,2,03360760007,0,Enclave Builders,1
", Sialkot",Sialkot,0,Mr AR Estate And Builder,AR Estate And Builder,0,0336-731676,10,Mr,0
"Bahria Town, Rawalpindi",Rawalpindi,0,Mr Abdul Raheem,AIM REAL ESTATE,0,03368821018,1,Mohammad Hamza,0
"Gulshan Abad, Rawalpindi",Rawalpindi,0,Mr Syed Shoaib Hassan,Hassan Estate,0,03238513851,0,Syed Shoaib Hassan,0
"Gulshan-e-Iqbal, Karachi",Karachi,0,syed masood,syed estate,0,03162650106,0,syed masood,1
"Tipu Road, Rawalpindi",Rawalpindi,0,Mr Muhammed Ahmed,Ahmed Trade and Rental Services,0,03345117404,0,Muhammed Ahmed,0
", Islamabad",Islamabad,0,Mr al Hijab,al Hijjab Estate,0,+92 332 501,2,mr,0
"Office No 2, Shaheen Center Opposite Jawa Hotel I-9 Markaz Islamabad",Islamabad,0,Mr liaqat hussain,Millat Estate,1,00923335337,0,Liaqat Hussain,0
", Sialkot",Sialkot,0,Mr Muhammad Khurram,Dream Night,7,0300-400483,0,M.Khurram,1
MARKAZ,Islamabad,0,Mr shah rukh khan,5G Properties and Consultants,0,03307771354,2,Usman Khan,0
", Sialkot",Sialkot,0,Mr Sheraz Dut,Sialkot Real Estate Consultants & Builders,10,03006139298,0,Sheraz,0
", Lahore",Lahore,1,Mr Rana Zia,New Lahore Estate And Builders,24,0300-984388,0,Rana Zia,0
"Gulistan-e-Jauhar, Karachi",Karachi,0,Qasim Sodagar,Homeland Enterprises,1,03312358285,0,Qasim Sodagar,0
"Aisha Manzil, Karachi",Karachi,0,Mr Mudassir Khan,Homeland Enterprises,2,03333576772,0,Sultan Ali Arif,0
"Raiwind Road, Lahore",Lahore,0,Mr muhammad ejaz,lahoregwadar marketing,0,03034000131,1,ejaz ahmed,0
", Islamabad",Islamabad,0,Mr Muhammad Yasin,The Builder,0,03335323227,0,Ch Muhammad Ibrahim,0
pak towers office no 702 f10 islamabad,Islamabad,0,Mr malik umer kaleem kaleem,jummeirah world marketing,0,92332518854,2,faisal sheikh,0
", Islamabad",Islamabad,0,Mr Ejaz Ahmed,Shayyan real state,0,03445492016,0,Ejaz pasha,0
", Islamabad",Islamabad,0,Mr Al Fajar,Al Fajar Enterprises,0,0310 137017,20,Mr X,0
", Abbottabad",Abbottabad,0,Mr Ali Sher,THE GREEN PROPERTIES & BUILDERS,0,0301-810988,18,Ali Sher,0
", Lahore",Lahore,0,Mr Ali Shahzad,Black Stone Properties,0,0423-111-11,21,Ali Shahzad,1
"Bahria Town, Lahore",Lahore,0,Mr awais shazli,shazli ese,0,03211666602,0,awais shazli,0
", Sargodha",Sargodha,0,Mr Sadaqat Ali,Madni Estate,1,0300-870905,0,Sadaqat Ali,0
"Valencia Housing Society, Lahore",Lahore,0,Mr saleem jafar,Syed Brothers,10,03069354014,0,Syed Waseem Ahmed,0
", Lahore",Lahore,0,Mr Shabbir Saani,Estate Circle,7,0320-040272,0,Shabbir Saani,0
", Abbottabad",Abbottabad,0,Mr Waheed Waheed,Dawn Properties,0,0316-227773,11,Waheed,0
"Tariq Gardens, Lahore",Lahore,0,K-designs,K-designs,1,03224250428,0,K-designs,0
", Multan",Multan,0,Mr Ch. Younas Gill,Prime Constructions,0,0303-710095,0,Ch. Younas Gill,0
", Lahore",Lahore,0,Mr Mian Amir,ABC Estate,0,0333-624288,4,Mian Amir,0
"DHA Phase 3, Lahore",Lahore,0,Mr Sajid Mahmood,Prestige Consultants,0,0321-844649,12,Sajid Mahmood,0
", Islamabad",Islamabad,0,Mr Waseem Satti,Satti Associates,8,0333 552545,0,Waseem Satti,2
"DHA (Defence), Lahore",Lahore,0,Mr Javaid Asif,Estate Counsel,0,0321-949983,1,Javaid Asif,0
"Allama Iqbal Town, Lahore",Lahore,0,Mr Rizwan Mustafa,11 estate,0,00923244818,0,Rizwan,0
"Gulshan Ravi, Lahore",Lahore,0,Mr Asif Abbas Momen,Momen Associates @ Online Property corner Lahore,0,03204583382,1,Asif Abbas Momen,0
", Rawalpindi",Rawalpindi,0,Mr A Z,A To Z Enterprises,4,+92 315 542,1,Mr,0
"DHA (Defence), Karachi",Karachi,0,Mr Mohammad Ali Choudhry,CK Builders & Real Estate Developers,1,+9233330508,0,Choudhry Mohammad Ali,0
"DHA Phase 1, Lahore",Lahore,0,Mr Abdul Razaq Noor,Estate Masters Real Estate Consultant,0,0321-885563,24,Abdul Razaq Noor,0
"42-Commercial , Airline Housing Society, Main Khaaban e Jinnah Road, Near Shaukat Khanum Hospital, Lahore",Lahore,0,Miss Nimra Saleem,Chohan Developers,0,03095550248,2,Muntansir Chohan,0
"DHA (Defence), Lahore",Lahore,0,Mr Nasim Ahmed,Signature prperties,0,00923004011,2,Ehsan,0
"Allama Iqbal Business Center, Ground Floor CBR Town Phase-I, Islamabad.",Islamabad,0,Mr Amjid Mir,Al-Ghani Enterprises,0,03008362999,3,Sami ullah Dar,0
"DHA (Defence), Lahore",Lahore,0,Mr Muhammad Akbar,Zamzama Estate,0,0321-856758,5,Muhammad Akbar,0
", Multan",Multan,0,Mr Mohsin Khan,Citi Investments,0,03216663400,3,Mohsin,0
", Sargodha",Sargodha,0,Mr Khalid Hunjra,Asif Estate Deals,5,0341-600897,0,Khalid,0
"DHA Phase 1, Lahore",Lahore,0,Mr Noman Munir Rao,YA RAB ASSOCIATES,0,+9232446744,0,NOMAN MUNIR RAO,0
", Faisalabad",Faisalabad,0,Mr Saheem Faisal,FSD Realtor's,0,03008261111,0,Saheem Faisal,3
"Lahore, Pakistan",Lahore,0,Mr John ag,sajjao,0,03212220630,0,John ag,0
", Multan",Multan,1,Mr Muhammad Sami,Noor Karim,2,+92 331 455,0,M.Sami,2
"Office# 3, Street#31, Block B, Sector B-17 Multi Gardens Islamabad",Islamabad,0,Mr Umer Hayat,Hayat Estate & Builders,0,03336000428,1,Umer Hayat,0
", Gujranwala",Gujranwala,0,Mr mr Sheikh,Al Sheikh Rea Estate & Builder,0,0320-777777,1,Mr Sheikh,0
", Gujranwala",Gujranwala,0,Mr Shariq Safder,Al Khair Real Estate,1,0321-599062,2,Shariq Safder,0
", Islamabad",Islamabad,0,Mr Al Mustafa,Al Mustafa Real Estate & Builders,0,0300-511850,20,Mustafa,0
", Gujranwala",Gujranwala,0,Mr Arslan Arslan,Heaven Real Estate & Builders,2,03343334400,0,Arslan,0
"Office # 6, Sialvi Market, Opp. Lahore Grammar School",Lahore,0,Mr Shahzad Chaudhary,GeoTech Lining Corporation,0,00923004070,0,Gulzar Ahmad,0
", Lahore",Lahore,0,Mr Sarwar Jawed,The Executive Hostel,0,03034843795,0,Sarwar,7
", Karachi",Karachi,0,Mr Right Track,Right Track Consultants,0,0321-129902,1,Consultants,0
", Lahore",Lahore,0,Mr Shazia Naseem,Staywell Girls Hostel,0,0332-449279,0,Shazia,9
", Islamabad",Islamabad,0,Mr Hussain Shah,Executive Associates,0,0310 777774,1,Hassain Shah,0
", Sahiwal",Sahiwal,0,Mr Naveed Azam,ASN Real Estate,5,+92-3334823,3,Naveed,0
"Dubai Street, Gardezi Market",Multan,0,Mr Muhammad Arif,AARIF ASSOCIATES,0,03344543333,0,Muhammad Arif,0
", Lahore",Lahore,0,Mr ubaid bhatti,Pakistan Star Marketing,4,03058080606,0,Ubaid,0
", Karachi",Karachi,0,Mr shamir younis,Alpha Properties,1,03092273889,0,Ammar Akhter,0
", Islamabad",Islamabad,0,Mr Safeer Ahmed,Safeer Associates,3,0331 731504,0,Safeer,4
", Karachi",Karachi,0,Mr saud khan,Property Prime Line,2,03008293086,1,saud khan,0
", Lahore",Lahore,0,Mr Ashfaque Ahmed,Forces Estate,0,0321-322844,10,Ashfaque,0
", Lahore",Lahore,0,Mr Hafiz Imtiyaz,Dawood Real Estate,1,0322-432915,4,Hafiz Imtiyaz,0
"Cantt View Lodges, Karachi",Karachi,0,Mr Syed Mohsin Raza,Mohsin Raza,1,03003154011,0,Mr Syed Mohsin Raza,0
", Sialkot",Sialkot,0,Mr M. Khizar,Raiz & Sajjad Surgical - Pvt. Ltd.,0,03007117037,0,RAIZ & SAJJAD SURGICAL PVT. LTD.,0
", Rawalpindi",Rawalpindi,0,Mr Naqash Ahmed,Kashi Real Estate And Builders,0,0336 444454,13,Naqash Ahmed,0
", Islamabad",Islamabad,1,Mr Muhammad Ali,Ali Real Estate,0,0333 511186,1,Muhammad Ali,1
", Lahore",Lahore,0,Mr Hassan Gull,Syed Brothers Johar Town,32,03336040109,0,Altaf Ali,0
", Islamabad",Islamabad,0,Mr Khurram Shahzad,Link Associates,12,0333-518651,7,Khurram,0
", Sahiwal",Sahiwal,0,Mr Abdullah Rasool,Abdullah Rasool Estate Advisor,0,3347675001 ,2,Abdullah,9
", Abbottabad",Abbottabad,0,Mr Raja Ejaz kayani,Kayani Estate Advisor,7,+9232198161,2,Raja Ejaz,0
", Lahore",Lahore,0,Mr Muhammad Kalim,Luxury Boys Hostel,0,03214111153,0,Kalim,6
", Islamabad",Islamabad,1,Mr Ismail Khan,Mujeeb Real Estate And Builders,1,0333 599999,26,Ismail Khan,0
"Gulberg, Lahore",Lahore,1,Mr Gulmohartradecentre,Rafts Properties,0,0300 4448744,0,Mr Gulmohartradecentre,0
"AirLine Housing Society, Lahore",Lahore,0,Mr Student Hostel,Student Hostel,0,0304-141827,0,Mr,4
"Bahria Town, Lahore",Lahore,0,Mr Sohaib Masud,MUHAMMAD GROUP,5,03225555550,0,MUHAMMAD MOHSIN NARAG,0
", Gujranwala",Gujranwala,0,Mr Amir K,Crown Estate Agency,0,+92-300-864,6,Amir,0
"Main Double Road, Gate No. 1, Multi Gardens, MPCHS, Sector B-17, Islamabad",Rawalpindi,1,Mr Engr MH,Best Deal Investment & Consultant,0,00923045139,3,Engr MH,0
"50, Mini Commercial, Phase VII Bahria Town Rawalpindi",Rawalpindi,0,Mr Babar Ali,Platinum Estate & Builders,0,03335231577,0,Babar Ali,0
", Islamabad",Islamabad,0,Mr Zaheer Ahmad,Wall Street Properties & Builders,0,0333 599999,4,Zaheer Ahmed,0
"Clifton, Karachi",Karachi,0,Mr Muhammad Jamil,M. Jamil Property,0,03132224679,0,M. Jamil,3
spogmay plaza university road,Peshawar,0,Mr salman khalid,Cityscape,0,03167399960,2,salman,0
", Sahiwal",Sahiwal,0,Mr Rana Munir Ahmed,Al Riyan Estate Agency,0,03236822082,4,Rana Munir,0
", Peshawar",Peshawar,0,Mr Zafar Iqbal Kamran,KS Property Dealer & Builders,4,3339571112 ,8,Zafar Iqbal Kamran,0
", Lahore",Lahore,0,Mr Bilal Kharal,Defence Avenue,4,320-4581077,25,M.Bilal Kharal,0
", Karachi",Karachi,1,Mr Ahmed H,UR Property,0,03332175458,0,Ahmed,6
", Multan",Multan,0,Sadiq,Asghar Property Dealer,1,03028084393,0,Sadiq,0
", Sahiwal",Sahiwal,0,Mr Ch . Ijaz,Ijaz Estate Agency,5,3067108756 ,11,Ch Ijaz,0
"Gulshan-e-Iqbal Town, Karachi",Karachi,0,Mr danish,Al Usman Estate,2,03473755326,1,Mr danish,0
", Islamabad",Islamabad,0,Mr Asad Iqbal,Signature Properties.,4,3005506428 ,0,Asad,0
", Lahore",Lahore,0,Mr Naseem Akhtar,Property Cash,0,3338575128 ,35,Naseem,0
"Gajju Matah, Lahore",Lahore,0,Mr Ubaid Rehman,Pakistan Star Marketing,1,03234313020,1,Ubaid Rehman,0
"Bahria Town, Karachi",Karachi,0,Mr Shamoon Alam,Landmark Properties,0,03002097078,2,Shamoon Alam,0
"Wapda Town, Lahore",Lahore,0,Mr Lahore Hostel,Lahore Hostel,0,0313 684388,0,Mr,5
", Karachi",Karachi,0,Mr Muhammad Mohib Khan,PINNACLE ESTATE,1,03102404918,30,SHER QADIR,0
"Bahria Town, Islamabad",Islamabad,0,Berq Properties,Bilal Alvi,0,0314 5358938,1,Berq Properties,0
", Lahore",Lahore,0,Mr Amir Raza,Al Hamza Boys Hostel,0,03214564786,0,Amir Hafeez,3
", Lahore",Lahore,0,Mr Rana Asif,Al Hamd Hostels,0,+92 300 461,0,Rana Asif,6
", Lahore",Lahore,0,Mr Adil P,Continental Hostel,0,03217069571,0,Aadil,11
", Lahore",Lahore,0,Mr Ghauri H,Ghouri Hostel chain,0,0321-885152,0,Ghauri,2
", Lahore",Lahore,0,Mr Bright Girls Hostel,Bright Girls Hostel,0,03238990001,0,Ali,3
", Peshawar",Peshawar,0,Mr Akbar Khan,Nasir Property,7,03364220007,21,Akbar Khan,0
", Lahore",Lahore,3,Mr Gulam Fareed,Adil Estate,7,03334892973,7,Gulam Fareed,3
CPOL#1417 Village Kamahan Lahore,Lahore,0,Mr Tauqeer Maqsood,Anabia Associate,1,03228300121,0,Tauqeer Maqsood,0
", Gujranwala",Gujranwala,0,Mr Syed Aisar Hussain Shah,Shahenshah Real Estate,0,03008741214,23,Syed Aisar,0
", Gujrat",Gujrat,0,Mr Muhammad Ali,Mosa Builders,5,03007544944,4,ali,0
", Gujranwala",Gujranwala,0,Mr Usman Bopara,Al Sultan Estate Advisor,0,3006446702 ,0,Usman Bopara,0
", Jhelum",Jhelum,2,Mr Usman Saadi,Usman & Saadi Associates,6,03229550112,47,Usman,0
", Gujranwala",Gujranwala,0,Mr Kazam Q,Tufail & Sons Estate,0,3474747098 ,0,Tufail,0
", Lahore",Lahore,0,Mr Qureshi Hostel,Qureshi Hostel,1,03334131531,0,Qureshi,3
", Lahore",Lahore,0,Mr Safari Estate,Safari Estate,4,0330 435231,148,Safari Estat,48
", Lahore",Lahore,0,Mr Riaz Maik,Madni Property,0, +92-300492,10,Riaz Maik,0
"Gulistan-e-Jauhar, Karachi",Karachi,0,Mr shabbir ahmed,S.S.A,1,3362220531 ,0,Ahmed,0
", Islamabad",Islamabad,0,Mr Naveed R,Aman Associates,3,0333 535282,0,Naveed,0
", Sahiwal",Sahiwal,0,Mr Raza k,Al-Kareem Associates,13,3052033226 ,0,Raza,0
", Lahore",Lahore,1,Mr Abu Bakar,Azaan Associates Lahore,13,03214359891,37,Tahir,1
", Sargodha",Sargodha,0,Mr Abrar Rana,Rana Estate Deal,13,335-7662595,0,Abrar Rana,0
"Gulberg, Islamabad",Islamabad,0,Mr Hassan Khan,Faizan Associates,0,0300-520484,20,Hassan Khan,0
"I- 8, Islamabad",Islamabad,0,Mr Umair Hashmi,Property Way Islamabad,0,03315120564,1,Mr Umair Hashmi,0
", Bahawalpur",Bahawalpur,0,Mr Khalil Ahmad,Bassrs DHA 4U,2,03407306303,12,Muhammad Shaheer Ahmad,0
"Soan Garden, Islamabad",Islamabad,0,Mr tariq ali,Imsul developments ISB,1,03365750750,0,Mr tariq ali,0
", Lahore",Lahore,7,Mr Maaz Khalid,Mahaar Real Estate,15,03341498737,9,Maaz Khalid,3
"DHA (Defence), Peshawar",Peshawar,0,Mr Naimat Shah,City Linkers,0,03354001123,0,Amir Saeed,0
"I- 8, Islamabad",Islamabad,0,Mr Shahid Khan,Property Way,0,03005525765,0,Shahid Khan,0
", Lahore",Lahore,0,Mr Abid Saleem,Zamil Real Estate,8,03009429382,27,Abid Saleem,0
"Ghauri Town, Islamabad",Islamabad,0,zubair,falak,0,03009713459,0,zubair,0
", Rawalpindi",Rawalpindi,0,Mr Awais Shafiq,Sultan's Construction & Real Estate,5,92333412118,30,Hamza,1
"I- 9, Islamabad",Islamabad,0,Mr Umair Hashmi,Multi Choice Islamabad,0,03315120564,1,Mr Umair Hashmi,0
", Lahore",Lahore,0,Mr Arsalan Waseem,Waseem Sons Enterprises,3,03009417755,1,Arsalan Waseem,1
", Lahore",Lahore,0,Mr Irfan Shaukat Gondal,Gwadar Property advisors,0, +92-333-42,5,Irfan Shaukat Gondal,0
", Gujranwala",Gujranwala,0,Mr Sadaqat Minhas,United Real Estate Gujranwala,5,03006464769,31,Sadaqat Minhas,0
"Islamabad Express way, Islamabad",Islamabad,0,Bilal,MULTIPLIERZ,1,03037774593,0,Bilal,0
"Cantt, Lahore",Lahore,0,Mr Muhammad Arshad,Pakland Properties,0,3214939136 ,0,Muhammad Arshad,0
", Lahore",Lahore,0,Mr Uzair Bin khalid,Bin Khalid Group,2,0345-943632,1,Uzair Bin Khalid,0
", Islamabad",Islamabad,0,Miss Kashmala Raees,Fortius Developers,10,03450011757,0,Kashmala Raees,0
", United Arab Emirates",United Arab Emirates,0,Mr Mich Delos Santos,OMS REAL ESTATE BROKER DXB,0, +971 4 457,0,Mich,0
"Gulistan-e-Jauhar, Karachi",Karachi,0,Ahmed,Ahmed,0,3362220531,0,Ahmed,1
"Gajju Matah, Lahore",Lahore,0,Miss sana khan,Pakistan Star Marketing,4,304 7070909,7,Ubaid,0
", Sahiwal",Sahiwal,0,Mr Shahbaz Tufail,Madina Associates Sahiwal,3,03365444487,7,Shahbaz Tufail,0
"Bahria Town Phase 7, Rawalpindi",Rawalpindi,0,Mr Adil Zaheer,MH Real Estate,2,03305870878,1,Malik Sibtain,0
"Johar Town, Lahore",Lahore,0,Mr Saleem Asghar,Imran Estate,0,03218041703,0,M. Asghar Ch.,0
", Gujranwala",Gujranwala,0,Mr Hafiz Rashid,Future House Real Estate,1,0300-641100,0,Hafiz Rashid,0
"62-R1,Phase_II,Johar Town Lahore",Lahore,0,Mr Syed Brothers Real Estate,Syed Brothers Real Estate-Lahore,21,03334317572,0,Syed Brothers Real Estate-Lahore,1
", Sahiwal",Sahiwal,2,Mr Ahmed Nawaz,Abdullah Associates Sahiwal,0,+92-3018601,7,Ahmed Nawaz,0
", Islamabad",Islamabad,0,Mr Muhammad Faisal,Saeed Est And Developers ISD,0,0300-979734,0,Fasial,0
", Lahore",Lahore,0,Mr imran ashraf,Ideal Deal Real Estate,1,0300-943117,0,imran ashraf,1
", Lahore",Lahore,1,Mr Muhammad Saqib,Mian Estate Advisor Lahore,1,0302-410100,28,"M, Saqib",8
", Lahore",Lahore,0,Mr Muhammad Usama,Heaven Land Estate,0,0311-410661,15,Usama,0
", Lahore",Lahore,0,Mr Tiwana Tiwana,Tiwana Associates,0,0321-537448,4,Tiwana,0
", Lahore",Lahore,0,Mr Mirza Hammad,ARMCO Holdings,5,0302-668066,0,Mirza Hammad,0
", Lahore",Lahore,0,Mr Ali Khan,Estate Options Real Estate Lhr,0,0321-574009,0,Ali Khan,0
5-6 Jail Road,Lahore,0,Mr Rizwan Alvi,Media Lines Outdoor Advertising,0,0300-845500,0,Rizwan Alvi,0
", Murree",Murree,0,Mr Faisal Abbasi,Taqwa Estate,1,0300-912224,8,Faisal Abbasi,0
"Sui Northern Gas Housing Society, Lahore",Lahore,0,Mr Alawwal Estate,Alawwal Estate,0,0331-410208,1,Naveed,0
", Abbottabad",Abbottabad,0,Mr Zubair Ahmed,Pak Yousafzai Property & Builders,4,03008988953,4,Zubair Ahmed,2
", Faisalabad",Faisalabad,0,Mr Rafaqat Gill,al Haram Real Est,3,0300-653620,1,Rafaqat Gill,0
"Bahria Orchard, Lahore",Lahore,0,Mr Khubaib Butt,Mega Real Estate,1,03074553998,3,Mian Ashfaq,0
"Margalla Shopping Plaza, Main Markaz, D-17/2, Islamabad",Islamabad,0,Mr Basharat Ali,Reliance International,12,03339218660,2,Inam-ul-Amin,1
", Islamabad",Islamabad,0,Mr Shami Khan,7 star Real Estate,0,0342-534 87,0,Shami Khan,0
", Islamabad",Islamabad,0,Mr Saif Ali,99th Estate Avenue,0,03345200109,8,Saif Ali,22
"Scheme 33, Karachi",Karachi,0,Mr Konain Memon,Jilani Real Estate,0,03232192099,0,Konain Memon,0
", Islamabad",Islamabad,0,Mr Al mumin estate,Al Mumin Estate,8,03135221208,20,Usman Tariq,0
", Lahore",Lahore,0,Mr Talha Anwar,High Deals Real Estate,0,03218489489,7,Talha Anwar,2
", Lahore",Lahore,0,Mr Nabeel Kamboh,Al Mateen Estate,10,+92-3219463,0,Nabeel Kamboh,0
", Lahore",Lahore,0,Mr hassnain hassnain,Hasnain Estate,0,92-30044334,10,hassnain,0
", Peshawar",Peshawar,0,Mr Bashir khan,Ibadat Property Dealer,0,0314-900488,0,Mr Khan,0
"Bahria Town Phase 7, Rawalpindi",Rawalpindi,0,Mr AbdulÂ  Manan,Al Aleem Real Est,1,0315 517657,7,AbdulÂ Manan,2
"Gulberg, Islamabad",Islamabad,0,Mr Salman Sheikh,Faizan Associates,1,0333-530874,1,M. Faizan HassanÂ Khan,0
"Scheme 33, Karachi",Karachi,0,Mr Ali a,Bid deal,0,03322599654,0,Mr Ali a,0
"Bani Gala, Islamabad",Islamabad,0,Mr Adeel Asim,Sariko Home,1,0333 0565673,0,Mr Adeel Asim,0
", Islamabad",Islamabad,0,Mr Sajid sb,Property Lounge,4,03135374721,15,Sajid Sb,0
"Rafah-e-Aam, Karachi",Karachi,0,Mr Wajahat Sheikh,Unique Real Estate KHI,0,03333006004,0,Mr Wajahat Sheikh,0
"Kohinoor City, Faisalabad",Faisalabad,0,Mr Tariq Waseem Chaudhry,Commercial plot Kohinoor city,0,03136655155,0,Mr Tariq Waseem Chaudhry,0
"Satiana Road, Faisalabad",Faisalabad,0,Mr Muhammad Usman Serwer,Allah BadShah Estate Agency,0,03077506461,1,Muhammad Usman,0
", Lahore",Lahore,2,Mr Raja Saleem,Raja Estate and Builders,8,03004220357,38,Raja Saleem,0
"Fateh Garh, Lahore",Lahore,0,Mr asim mughal,Real-Estate,0,03205616155,0,asim,0
", Rawalpindi",Rawalpindi,0,Mr Tariq Amin,Aa,0,0333 6980748,0,Mr Tariq Amin,0
", Islamabad",Islamabad,0,Mr Naveed K,Aman Estate,10,0315-513272,0,Naveed,8
", Islamabad",Islamabad,0,Mr Zahir Ahmad,Cloudxfinty,0,03335126687,0,Zahir Ahmad,0
", Lahore",Lahore,0,Mr Muhammad Arif,RMA Real Estate Marketing,5,03354561958,18,Rauf Muhammad Arif,0
"F-11, Islamabad",Islamabad,0,Mr Muhammad Farhan,Tahseen real estate,0,03335349523,0,Muhammad Farhan,0
", Rawalpindi",Rawalpindi,0,Mr Adnan Noor,Estate Expert,13,03007555557,0,Adnan Noor,8
qazimarketing@yahoo.com,Karachi,0,Mr SARDAR MUHAMMAD ASIF,Qazi Marketing,0,03312099720,4,Muhammad Israel Qazi,1
"Gulshan-e-Iqbal, Karachi",Karachi,0,Mr Adeel,Future Vision,0,03335254222,0,Mr Adeel,0
", Lahore",Lahore,0,Mr Ch Muhammad Saeed,Elegant Estate,49,03214813092,0,Ch Muhammad Saeed,0
"E-11, Islamabad",Islamabad,0,Mr Ch.Usman Arshad,U Marketing,0,0331-511145,13,ch usman Arshad,0
"DHA, Multan",Multan,0,Mr Sibghat Ullah Khan,Centerlink Enterprise,0,0333-012222,2,Sibghat Ullah Khan,0
", Islamabad",Islamabad,0,Mr Nadeem Yousaf,VIP Properties,19,03345771666,18,Nadeem,0
"Rehmanabad Chowk, Murree Road Rawalpindi",Rawalpindi,1,Mr SHAHZAD J-T,J.T PROPERTY,0,03455380532,0,AHMED ALI SIDDIQUI,0
", Islamabad",Islamabad,0,Mr Faheem Ameer,Ajwa Enterprises,7,03018788300,16,Faheem,0
"Askari XI, Lahore",Lahore,0,Mr Adil Qureshi,AQ Associate,0,03364820713,0,Mr Adil Qureshi,1
"Citi Housing Society, Gujranwala",Gujranwala,0,Mr Muhammad Usman,Usman Builders,1,03338108219,0,Muhammad Usman,0
", Islamabad",Islamabad,5,Miss lujaina lujaina,yahya enterprises,8,03205338823,0,Harris Jabbar khan,0
", Rawalpindi",Rawalpindi,0,Mr Sarmad Habib,Investment Empire,3,0342 951113,11,SarmadÂ Habib,0
"Hala Naka Road, Hyderabad",Hyderabad,0,Mr Manzoor Qadir,Manzoor Estate Agency,0,03003085714,1,Mr Manzoor Qadir,0
"F-6, Islamabad",Islamabad,0,Mr Muhammad Uzair,Marriott Estate & Builders,2,03337728977,0,Mr Muhammad Uzair,1
"Ghazi Road, Lahore",Lahore,0,Mr Muhammad Ajmal,Muhammad Ajmal,0,03004810868,0,Mr Muhammad Ajmal,0
", Islamabad",Islamabad,0,Mr Muhammad Zavvar,Emaan Builders,14,03235103426,16,M.Zavvar,6
"Ferozepur Road, Lahore",Lahore,0,Mr Paradise Apartments,Paradiseapartments,0,03008369123,0,Arshad Ali,0
"Defence Phase-2, Islamabad",Islamabad,0,Mr Aziz Ahmad,AL Aziz Property Services,0,03215566730,0,Aziz Ahmad,0
"Soldier Bazar, Karachi",Karachi,0,Mr Kashif,M M Real Estate,0,03333272424,0,Mr Kashif,0
"Gulshan-e-Iqbal Town, Karachi",Karachi,0,Mr Shabbir Memon,Okhai memon Estate,0,03312881648,0,Shabbir,0
", Faisalabad",Faisalabad,0,Mr Faysal Ayyub,Lahore City Properties,0,03214448009,0,Faysal Ayub,0
"Gulberg Green, Islamabad",Islamabad,0,Mr Ikram,Kk,0,03455145280,0,Mr Ikram,0
", Karachi",Karachi,0,Mr Hasan,Hadi,1,03333969955,0,Mr Hasan,0
"Bahria Enclave Islamabad, Islamabad",Islamabad,0,Mr Rashid Khan,Keystone Construction and Investments,1,03125118505,0,Mr Rashid Khan,0
", Lahore",Lahore,0,Mr akmal nizamudidn,Smart Marketing,0,00923248448,0,Muhammad Akmal CH,0
", Faisalabad",Faisalabad,0,Mr Azeem Akbar,AR Sons Real Estate,10,03006640087,22,Azeem,6
"Bahria Town, Islamabad",Islamabad,0,Mr NAYYER MUGHAL,EMAAN ESTATE & BUILDERS,0,03335667637,0,M K NAYYER,0
", Lahore",Lahore,0,Mr Fawad Saleem,Hunjra Property Advisor,0,03234259777,0,Fawad Saleem,0
", Karachi",Karachi,0,Mr Yousaf K,Silk Estate,3,+92-3032553,7,Yousaf,0
", Lahore",Lahore,0,Mr M Waqas,Jannat Hostel,0,03219453607,0,M. Waqas,5
", Hyderabad",Hyderabad,0,Mr Ali Zaman,Gulshan Property Dealer,0,03016788410,1,Mr Ali Zaman,0
", Lahore",Lahore,0,Mr Eagle eye,Eagle Eyes Properties,3,0333 850991,0,Mr,1
", Islamabad",Islamabad,2,Mr Shezaan Ali,Eagle Properties,0,0306 032368,8,Shezaan,0
", Lahore",Lahore,0,Mr Yaseen Muhammad,Crystal Clear Properties,0,3246291480 ,22,Yaseen Muhammad,0
", Lahore",Lahore,0,Miss Manahil Umar,Chohan Developers,0,03351654868,7,Chohan,0
", Rawalpindi",Rawalpindi,0,Mr Shaheen Awan,Shaheen Asscoiates,0,0301 854300,0,Shaheen awan,0
", Lahore",Lahore,0,Mr Humayun k,Commercial Zone,0,03111786787,1,Humayun,0
", Lahore",Lahore,0,Mr Kamran Ghafoor,Azeem Estate & Builders,0,0320-460352,5,Karmran Ghafoor,0
", Lahore",Lahore,3,Mr Abdul Sattar,Crystal Estate,17,0321-472581,8,Abdul Sattar,5
"DHA (Defence), Karachi",Karachi,0,Mr Muhammad sarfraz,Aklins properties,1,03222802888,0,Javed,0
"Defence Phase-2, Islamabad",Islamabad,0,Mr usman ali,72 management estate and builder,0,03335557386,0,usman ali,0
"Elite Town, Lahore",Lahore,0,Mr usman younas,FAUJI PROPERTY CENTER&BUILDERS,0,+9233164410,0,rehan younas,0
", Multan",Multan,0,Mr Shahzain Property,Shahzain Property Linkers,20, 0302-74138,0,Shahzain,0
", Lahore",Lahore,0,Mr Zuhaib Amin,Minhas Estate,2,03236370643,1,Zohaib Ameen,0
"Marghzar Officers Colony, Lahore",Lahore,0,Mr Adnan Tariq,Nowasys,0,+9232149140,0,Adnan Tariq,0
"Muslim Town, Bahawalpur",Bahawalpur,0,Mr rana umair,A 2 Z Architect & Properties,0,03005289981,0,rana umair,0
"Main Harbanspura Road, Lahore",Lahore,0,Mr Irfan Ali,MB Associates,0,03454249965,1,Irfan Ali,0
", Lahore",Lahore,0,Mr Ghulam Mustafa,Ittihad Estate,2,03124890097,1,Ghulam Mustafa,0
", Lahore",Lahore,0,Mr Wajahat Malik,Basao Associates,0,03346888007,18,Wajahat,1
", Lahore",Lahore,0,Mr Ijaz Ahmed,Planet Associates,0,03004002209,5,Abdul Razak,0
"Office no.205, 2nd Floor, Arooj Arcade, F-10 Markaz, Islamabad",Islamabad,0,Mr Abbas Ansari,Capital Fortune Islamabad,0,03005671777,4,Abbas Ansari,0
"F-6, Islamabad",Islamabad,0,Mr Zohaib Akhter,Unique Enterprises,0,03325559455,0,Mr Zohaib Akhter,1
"Ajaib Group,896-B service road nE11/4, Islamabad",Islamabad,3,Mr Raja Babar,Ajaib Group,1,92300056900,0,S.Ali,0
"New Town Housing Scheme, Gwadar",Gwadar,0,Mr Ahmad Alvi,Alvi Real Marketing Gwadar,0,03154174669,0,Ahmad Alvi,0
"Bahria Nasheman, Lahore",Lahore,0,Mr MUHAMMAD ILYAS,HAJVERY MARKETING,0,03042567050,1,Mr MUHAMMAD ILYAS,0
"Bahria Town, Lahore",Lahore,0,Mr Amir Hafeez,A-plus Property Network,3,03219297771,24,Amir Hafeez,0
"Bahria Town Phase 8, Rawalpindi",Rawalpindi,0,Mr Sardar Tufail,PearlPropertyservices,0,03335999459,10,Kamran Khawar,0
"Bahria Town Phase 8, Rawalpindi",Rawalpindi,0,Mr huzaifa ali,mian estate & builder,0,03165082636,0,usman,0
", Lahore",Lahore,0,Mr Riaz Jee,Blue Real Estate,0,03214966534,17,Riaz,0
"Defence Phase-2, Islamabad",Islamabad,0,Mr Malik Taimour,Awan Properties,1,0333-526802,1,Haider Awan,0
"University Town, Islamabad",Islamabad,0,Mr Muhammad Mansoor,deal and deals,0,03365817781,1,Mr Muhammad Mansoor,0
"GovernmentÂ Employees Cooperative Housing Society (GECHS), Lahore",Lahore,0,Mr GTECH Space,GTECH Space,0,0300 0441498,0,Mr GTECH Space,1
"Bahria Town, Islamabad",Islamabad,0,Mr Amir Francis,Nanovators,0,03472460690,1,Muhammad Usman,0
", Lahore",Lahore,0,Mr Aqeel Malik,Muhaffiz Girls Hostel,0,03244940448,0,Aqeel Malik,7
17-ikasi Bodla Road Opp rose villy Colony,Multan,0,Mr Shaheer Haider,Safiya homes,1,+923436406942,0,Mr Shaheer Haider,0
", Lahore",Lahore,0,Mr David Richard,Faremakers,0,04211114711,0,David Richard,0
", Karachi",Karachi,0,Mr Ali Bilal,Rockwell Associates,20,03234621990,0,Shafeeq,22
"Khurrianwala Town, Faisalabad",Faisalabad,0,Mr ranaminhas,Minhas Associates,0,03007257416,1,Mr ranaminhas,0
"Bahria Tower, Karachi",Karachi,0,Mrs Salman Yousaf,Salman real estate and builder,0,03219100206,1,Salman yousaf,0
"Bahria Enclave Islamabad, Islamabad",Islamabad,0,Mr Waqas Rajput,Centerac Consultancy,0,03335372332,0,Mr Waqas Rajput,0
"Fateh Jhang, Islamabad",Islamabad,0,Mr Muhammad Ali Wahab,SAQLAIN ESTATE & BUILDERS,0,03335249309,0,Mr Muhammad Ali Wahab,0
", Karachi",Karachi,0,Mr fancyestate,Fancy Estate,0,03219220600,1,Mr fancyestate,0
", Vehari",Vehari,0,Mr Dr. Zain Ul Abidin,Al-Madina Associates,0,03336271017,0,Mr Dr. Zain Ul Abidin,0
"DHA (Defence), Lahore",Lahore,0,Mr Malik Israr,Defence Estate,2,0324 880907,2,AD Malik,1
", Lahore",Lahore,1,Mr Adnan Khawaja,Abid Estate,2,0307 450795,0,Abid Raza,1
", Lahore",Lahore,0,Mr Ahmed AAA,AAA Estate,0,03218786007,0,Ahmed,1
"Park Road, Islamabad",Islamabad,1,Mr Real Solution,Real Solution,0,03335509998,0,Mr Real Solution,0
", Islamabad",Islamabad,0,Mr Farhan Ahmed,A.Y Consultants,0,03215383390,0,Farhan u2,0
"Naval Housing Scheme, Karachi",Karachi,0,Mr M MAjid,Bismillah Real Estate,1,03222790065,0,M Ali,1
"DHA Valley, Islamabad",Islamabad,0,Mr Tahir Gillani,Khyber real estate,0,03335265914,0,Tahir gillani,0
"Wapda Town, Lahore",Lahore,0,Mr Mohammad Talha,New Lahore Estate,0,03208001299,1,Mr Mohammad Talha,1
"Bahria Enclave Islamabad, Islamabad",Islamabad,2,Mr Muhammad Asad Ali,RightWay properties,13,03153456660,0,Kamran Sadique,0
", Karachi",Karachi,0,Mr irfan khan,Al Rehman,0,0345-855335,0,Irfan,0
"Batapur, Lahore",Lahore,0,Mr Kashan ashraf,Mian kashan,0,03249990006,0,Mr Kashan ashraf,0
"Clifton, Karachi",Karachi,0,Mr Ahmed Ghani Chohan,Bhatti Enterprise,0,03343519570,0,Junaid Bhatti,0
"Bharakhu, Islamabad",Islamabad,1,Mr Mohammad Aamir,New Capital Property,10,03347771118,3,Mohammad Aamir,0
"Al Faisal Properties. UG 145 Defence Residency Al Ghurair Giga DHA 2 Islamabad, Pakistan",Islamabad,0,Mr kashif kiani,Al Faisal Estate,1,0333-517278,1,Kashif Kiyani,0
", Rawalpindi",Rawalpindi,0,Mr Ikram Dar,Dar Associates,0,0332-552020,18,Ikram Dar,0
", Karachi",Karachi,0,Mr Syed Hassan,Sidra Marketing,0,0333-055227,0,Syed Hassan,0
"Bahria Tower, Karachi",Karachi,0,Mr Muhammad Shiraz,Estate Venture,4,0312-512327,1,M.Shiraz,0
", Lahore",Lahore,0,Mr Hamayun khan,LMC Xperts,0,0321-880294,0,Hamayun Khan,0
", Islamabad",Islamabad,0,Mr Ali Mansoor,Smart Homes,0,0321-858010,0,Ali Mansoor,0
"Blue World City, Islamabad",Islamabad,0,Mr Malik Hassan,Al-Hamd Properties,0,03353373008,1,Mr Malik Hassan,0
", Karachi",Karachi,0,Mr Ahyaam chaudhary,Your Properties,0,0302-636656,0,Ahyaam Chaudhary,0
"Phase 2 Commercial Area Defence Housing Authority, Karachi, Karachi City, Sindh 75500",Karachi,0,Mr Friends Associate,Friends Associate,0,+9232282332,0,Saeed Shah,0
"Bahria Town , Islamabad",Islamabad,0,Mr Kashif Kiyani,I&R Builders,27,0332-102102,5,Kashif Kiyani,1
office#3 street31 Block B Sector B-17 Multi Gardens,Islamabad,0,Mr Umer Hayat,Hayat Estate & Builders,0,0333-600042,51,Umer Hayat,0
"khayaban-e-Amin, Lahore",Lahore,0,Mr Asad Ali,Rashid associate,0,03074628304,0,Rashid Ali,0
"Office No. 3, Main G.T Road, Below Giga Masjid, Gate No. 02, DHA phase 2, Islamabad.",Islamabad,20,Mr Muhammad Naveed Shaukat,Pakistan Estate Links,17,0344-603220,3,Muhammad Naveed Shaukat,5
", Islamabad",Islamabad,16,Mr Muhammad Bilal Aslam,Askari Inn real estate,13,0331-821342,3,M.Bilal Aslam,5
"Bahadurabad, Karachi",Karachi,0,Mr Imran Murad,MMM Real Estate,0,03212125140,0,Mohsin Ali,0
"DHA (Defence), Karachi",Karachi,0,Mr Agha Haider,Elakta Property,1,03323562032,3,Mr Agha Haider,0
"Faisal Town, Gujrat",Gujrat,0,Mr Umair Malik,Malik Builders and Property Adviser,0,0305-630920,0,Umair Malik,0
", Lahore",Lahore,0,Mr Muhammad Bilal Aslam,Askari Inn real estate,0,03318159199,0,M.Bilal Aslam,0
"Office no 29,30 1st Floor AlHameed Mall G-11 Markaz,Islamabad,Pakistan",Islamabad,1,Mr Muhammad Shahzad,Al Hameed Enterprises,0,0336-562833,17,Muhammad Shahzad,0
"Canal Road, Faisalabad",Faisalabad,0,Mr abid,I.S.B Estate,0,03157766665,1,Mr abid,0
"DHA (Defence), Lahore",Lahore,0,Mr Husnain Ramay,Home Smart Home,0,03237657696,0,Husnain Ramay,0
"Faisal Town, Gujrat",Gujrat,0,Mr Waqar khan,Musa Builders,3,0322-245024,10,Waqar,0
", Gujranwala",Gujranwala,0,Mr Waqas Arshad,Chohan Builders And Real Estate,0,03007005566,0,Waqas Arshad Chohan,1
"Bahria Town, Rawalpindi",Rawalpindi,0,Mr umair Qazi,Prism Estate & Builders,11,0321-432451,5,Umair Kazi,0
DHA Multan,Multan,0,Mr Muhammad Sohaib Bodla,Bodla Builders Realtors & Developers,0,03219999119,41,Muhammad sohaib bodla,0
"407-408 Al Ameera Certre Sharah-e-Laiquat Saddar, Karachi",Karachi,0,Mr Ali Zadi,Express Club Properties,0,0301-821881,0,M.Satan,0
"37-G Commercial market DHA phase 1 Lahore, Pakistan",Lahore,0,Mr Sikandar Malik Noshahi,Harum Real Estate & Developers,36,0321-404555,0,Sikandar Malik Noshahi,0
"Lake City Holdings (pvt) Ltd. Lahore, Pakistan",Lahore,0,Mr Muhammed Moeen,Consult N Deal,12,0321 777977,44,M.Moeen,0
"2820 NW Barry Rd Kansas City, Missouri",Gwadar,0,Mr Farhan Ali Falak Ali Falak,United Country Real Estate(Pvt) Ltd,0,0303-520010,19,Farhan Ali Falak,0
Gulistan-e-Jauhar Karachi,Karachi,0,Mr Mahmood ul Haq Usmani,Usmani Associates,3,0301 664312,16,Mahmood-ul-Haq Usmani,0
"Wapda Town: 11-M, Wapda Town Phase -II (4.70 mi) Lahore, Pakistan",Lahore,0,Mr Shakeel Ahmed,Locations Property,8,0323-442542,68,Shakeel Ahmed,0
"Bahria Town Phase 8, Rawalpindi",Rawalpindi,0,Mr Ayaz Gul,RN Estate and builder,0,03125051257,1,Khuram bro,0
"Gujranwala Road, Sheikhupura",Sheikhupura,0,Mr Muhammad Ali,Team X Marketing,0,03000900403,1,Mr Muhammad Ali,0
"F-10, Islamabad",Islamabad,0,Mr sami qureshi,AL MEEZAN REAL ESTATE,0,03455084284,0,SAMI QURESHI,0
"Office 2, 2nd Floor, Empire Center, Near Mr Chip's, F-7 Markaz Islamabad, Pakistan",Islamabad,0,Mr M. Usman Alam,Sky Marketing,7,0333-550225,51,M.Usman Alam,0
"Office No: 13, Nisar Shaheed Park Gate# 1, DHA Phase-4,",Karachi,0,Mr H. Munawar Malik,Munawar Estate And Developers,5,03024746134,41,Moazzam Malik Hafiz Farooq,0
Shop No 1 and 2 Plaza No 167 Hub Commercial Opposite Customer Support Centre Bahria Town Phase 8 Rawalpindi/ Islamabad,Rawalpindi,0,Mr Muhammad Mujahid Saeed,Karachi Real Estate & Builders,0,03332570719,1,M Mujahid Saeed,0
"ICHS, Islamabad",Islamabad,0,Mr zain qazi,Qazi Enterprises,0,03061534105,1,Mr zain qazi,0
"Office # 31, Sunflower Block Commercial, Bahria Nasheman, Ferozepur Road, Lahore",Lahore,0,Mr Muhammad Shakeel,Mahad's Estate,0,03229747943,1,Babbar Sajjad,0
"QKP (SMC - PVT) Ltd near BloomField School Multan Public School, Multan",Multan,0,Mr Qaisar Khan,QKP (SMC PVT) Ltd Real Estate Developers & Builders,5,0333-613378,42,Qaisar Khan,0
"Office no 4 , Ground floor Search Mansion Bahria town Phase 7 Islamabad Islamabad, Pakistan",Islamabad,0,Mr Muhammad Hamza,Aim Real Estate Consultant,22,0333-544328,1,Muhammad Hamza,0
Chungi Amar Sadhu Lahore,Lahore,0,Miss Zahir Khan,khan group,0,03244239969,0,Zahir khan,2
OPF Housing Scheme Lahore,Lahore,0,Mr Muhammad Awais Ajmal,Topland Developers,1,03215546074,0,Awais Ajmal,0
"DHA Phase 4, Lahore",Lahore,0,kashif akbar,sarzameen estate ,1,03004848446,0,kashif akbar,0
Ashraf Town Chakwal,Chakwal,0,Mr Sohail Sarwar,Sultan Properties & Builders,2,03325854040,2,Sohail Sarwar,0
Johar Town-Lahore,Lahore,0,Mr Marwan Saleem,Saleem Assocaites,0,03334466728,0,Marwan Saleem,0
"Fazaia Housing Scheme, Karachi",Karachi,0,Mr Aarco Marketing,Aarco Real Investment,2,03000345989,0,Aarco Marketing,0
", Faisalabad",Faisalabad,7,Mr Muhammed hamza,Ajwa Estate & Developers,5,0300-862069,21,Muhammad Hamza,2
Shop no 3 shanzil golf residencia main Jinnah Avenue malir cantt karachi,Karachi,0,Mr Malik Imran,Creative properties,0,+9233421608,0,Malik imran,0
North Nzimabad Karachi,Karachi,0,Mr Usman Vohra,Takaful Estate,19,0333-247999,41,Irfan Memom,1
Gulberg Islamabad,Islamabad,2,Mr Mohsin Abbasi,Seven Star Real Estate,5,0315-511315,35,Mohsin Abbasi,0
"Iqbal Park, Lahore",Lahore,0,Malaika Qaiser,No estate,0,03238875904,0,Malaika Qaiser,0
DHA-Lahore,Lahore,0,Mr Abdul Ghafoor,Deltas Real Estate,0,0321-455598,1,Abdul Ghafoor,0
DHA-Karachi,Karachi,0,Mr Farooq Choudhary,GHL Properties,1,0321-826383,0,Hadi Lakho,2
"Main G.T Road Opposite DHA II Gate # I Darwash Plaza 1st Floor Office # D3,D4 Islamabad",Islamabad,0,Mr Syed Mujtaba,Syed Properties,0,00923335700,0,Syed Mujtaba Ali Gardazi,0
DHA-Lahore,Lahore,0,Mr Yasir Malik,Etihad Marketing Lahore,3,03234600036,6,Yasir Malik,0
DHA-Lahore,Lahore,0,Mr Shiekh Hamza,Al-Aziz Marketing,0,03228671111,7,Shiekh Hamza,0
"DHA Phase 5, Lahore",Lahore,0,Abdul Ghafoor,The DELTAS Estate ,0,03214555987,0,Abdul Ghafoor,0
DHA-Lahore,Lahore,0,Mr Rashid Umar,Great Real Estate,11,03214028008,58,Rashid Bin Umar,0
"Wah Gardens, Wah",Wah,0,Sherjeel Ahmad,AK real estate,0,03159827253,1,Sherjeel Ahmad,0
"DHA Phase 5, Lahore",Lahore,0,Abdul Ghafoor,The DELTAS Estate ,0,03214555987,0,Abdul Ghafoor,0
Bahria Town-Karachi,Karachi,0,Mr Farooq Imtiaz,Farooq imtiaz,0,03240118235,0,Farooq imtiaz,0
DHA-Lahore,Lahore,0,Mr Mehmood Ali,Leads Estate,80,03218838883,21,Mehmood,8
Bahria Town-Karachi,Lahore,0,Mr Azam Ali,Mashallah Estate,0,03336622102,0,Azam Ali,0
"Jalalpur Road, Gujrat",Gujrat,0,Zain,Shahzain,0,03314829539,1,Zain,0
DHA Park View,Lahore,0,Mr Muhammad Ejaz,Estate Planners,0,0323-448101,1,Muhammad Ejaz Ali,0
", South Africa",South Africa,0,Mrs Kadi An,Ananbo,0,08033783627,0,Boca,0
"Ring Road, Peshawar",Peshawar,0,Mr Cityscape Housing,Cityscape Housing Private Limited,0,03421117845,1,Nouman,0
Gulshan-e-Maymar KARACHI,Karachi,0,Mr tabish akbani,AARCO REAL INVESTMENT,2,03000345988,0,ALTAMASH MEMON,0
Fazaia Housing Scheme Karachi,Karachi,0,Mr AARCO Investment,AARCO REAL Investment,2,03000345988,0,AARCO Investment,0
sector X.IV SB.60 shop no2 Mustafa arcade near Nawaz sharif park Gulshan_e_maymar,Karachi,0,Mr daniyal Essani,One stop enterprises,0,03120114981,1,Daniyal,0
"Bahria Town Phase 8, Rawalpindi",Rawalpindi,0,Mr Khawaja Anis,Advantage Enterprises,6,03005146793,4,Mr Khawaja Anis,0
"Mohallah Sargojrah, Chakwal",Chakwal,0,mubashar,non,0,03365310729,0,mubashar,0
"Pakistan Chowk, Karachi",Karachi,0,Mr Javaid Akbar,Individual,1,03042924188,1,Javaid Akbar,0
Islamabad Airport Islamabad,Islamabad,0,Mr Gohar Hayat,Vertex International,0,00923485949089,1,Gohar Hayat,0
"Northern Bypass, Karachi",Karachi,0,Mr Arbab,Arbab builder and real estate,0,03152011108,1,Mr Arbab,0
Fazaia Housing Scheme Karachi,Karachi,0,Mr AARCO REAL investment,AARCO REAL Investment,0,03000345988,0,AARCO REALinvestmen,0
DHA-Karachi,Karachi,0,Mr HASSAN JAFFERY,HASSAN CHEMICAL,0,03332131431,0,Hassan Jaffery,0
"Ring Road, Peshawar",Peshawar,0,Cityscape,Cityscape,0,00923479990004,0,Cityscape,0
", Rawalpindi",Rawalpindi,0,Mr SALMAN,Al-kasib Enterprises,0,03335310222,1,Mr SALMAN,0
"DHA (Defence), Karachi",Karachi,0,Mr Muhammad Idrees,Desire Real Estate,0,03002517466,1,Mr Muhammad Idrees,0
"P.W.D Housing Scheme,Islamabad",Islamabad,0,Mr Hammad Khan,Eworld Estate,0,03318878987,0,Hammad Khan,1
"Shahra-e-Faisal, Karachi",Karachi,0,Mr Syed Muhammad Huzaifah,Pearl Estate & Marketing,0,03368158288,0,Syed Muhammad Huzaifah,0
"Gulshan e Maymar block YØ Abdullah Gabol Goth, Ú©Ø±Ø§ÚÛ, Ø¶ÙØ¹ Ú©Ø±Ø§ÚÛ, Ø³ÙØ¯Ú¾ 75500",Karachi,0,Mr Talha Mushtaq,AARCO REAL INVESTMENT & BUILDER'S,1,+92-323-322,1,ALTAMASH MEMON,0
DHA-Karachi,Karachi,0,Mr Muhammad Adnan,alpha real estate,1,03411048000,0,Ch Adnan,0
Steer 11,Islamabad,0,Mr R Rana,Private,0,03012161616,0,R Rana,0
Model Town Multan,Multan,0,Mr Mubashir Hussain,Sunny Property Marketing,1,03097101076,1,Zaffar Iqbal Mughal,0
"Zamzama, Karachi",Karachi,0,Mr Aamir Rehmani,True Marketing,0,03344225778,0,Syed Nadir Ali,0
C-1 Near Goal Masjid and Wapda Model School,Sukkur,0,Mr Nadir Ali Bhatti,Rajpoot Real Estate,0,03103407001,2,Nadir Ali Bhatti,0
Circular road Bahawalpur,Bahawalpur,0,Mr Hafiz Dhillon,Pelican Properties(Pvt.)Limited,0,+92(300)682,0,Hafiz Altaf Anjum Dhillon,0
"F-10, Islamabad",Islamabad,0,Mr khalil ur rehman,jw marketing,0,03355933374,0,Mr khalil ur rehman,0
G-7 Islamabad,Islamabad,0,Mr Tasawur Abbas,City Estate,1,03415551313,0,Mohammad Adnan,0
"Top City-1, Islamabad",Islamabad,0,Shah Khisro,KROSF Construction (Pvt) Ltd,0,03171444969,1,Shah Khisro,0
"Gulshan-e-Iqbal, Karachi",Karachi,0,Mr Syed Mohammad Saeed,AL MUNSIF PROPERTY CONSULTANCY,9,00923212538,0,S.M.Saeed,2
"Musarat Arcade, 2nd floor, office No. 4, G-11 Markaz, Islamabad",Islamabad,0,Mr Ayub Muhammad,Al Fasial Enclave,0,03000130005,13,Marketing Executive,0
North Nzimabad,Karachi,0,Mr Husain Shabbir,Albayt Properties & Marketing,1,+9233336135,0,Husain Shabbir,0
", Gujranwala",Gujranwala,0,Mr Ali Bashir,AL Sheikh Real Estate,0,03116475430,0,Ali Bashir,0
"Satellite Town, Jhang",Jhang,0,Mr Shakeel Ahmed,Shakeel Estate Agency,0,03143407273,0,Shakeel Ahmed,0
"DHA (Defence), Lahore",Lahore,0,Mr Ch Adnan,New lahore properties,0,03217829370,0,arshad najmi,0
", Lahore",Lahore,0,Mr Vital Estate,Vital Estate,5,0323-400013,0,Mr,0
", Karachi",Karachi,1,Mr Asim Kumar,Linker Realty,9,0335-301816,19,Kumar,0
", Lahore",Lahore,0,Mr Abdul Rehman,National Estate,4,0322-721119,9,Hammad,2
"Scheme-45, Karachi",Karachi,0,Tahir Saeed,Real Asset Marketing,0,03313741156,2,Tahir Saeed,0
"AirLine Housing Society, Lahore",Lahore,0,Miss Nimra Saleem,Chohan Developers,0,03095550248,1,Chohan,0
"Bani Gala, Islamabad",Islamabad,0,Mr ShehriyarHayat,Mian,0,03115117117,0,Mr ShehriyarHayat,0
"Bahria Apartments, Karachi",Karachi,0,umair mushtaq,umer&associates,2,03000645783,0,umair mushtaq,0
"Bahria Town Phase 6, Rawalpindi",Rawalpindi,0,Mr Ubaid ur Rehman,Igloo property,0,03046829708,0,Imran yousaf,5
City Housing Faisalabad,Faisalabad,0,Mr Hafiz Saleemullah,prime developers,0,03004500328,0,Hafiz Saleemullah,0
Anchorage Naval Housing Society Islamabad,Islamabad,0,Mr Nouman Satti,Na Enterprises,3,92333542702,0,Nouman,0
"khayaban-e-Amin, Lahore",Lahore,0,Mr Capt Waseem Rana,Bahawalpur Builders,0,03061036676,1,Capt Waseem Rana,0
DHA-Karachi,Karachi,0,Mr Muhammad Adnan,Siddiq estate,0,03411048000,0,Siddiqui Qureshi,0
Shahab Pura Sialkot,Sialkot,0,Mr M Masood,Apto ENTerprises,0,03126768119,0,APTO ENTERPRISES,0
", United States of America",United States of America,0,Mr Ziad Khan,Digital International,0,2026813553 ,4,Digital International,0
Taj Bagh Lahore,Lahore,0,Mr zafar Iqbal,T Z Associates & Estate Builder,0,03350166315,0,zafar iqbal,0
"DHA Phase 2, Karachi",Karachi,1,Mr Umer Farooq,Interior Eight,9,03362259477,2,Umer Farooq,0
"Thokar Niaz Baig, Lahore",Lahore,0,Mr Hafiz usman,Usman,0,03214018065,0,Mr Hafiz usman,1
"Gulshan-e-Mehmood ul Haq, Karachi",Karachi,0,SHAHERYAR,REAL KING ASSOCIATES,0,03302364028,1,SHAHERYAR,0
"NFC-II, Lahore",Lahore,0,Mr Muhammad Ismail,Individual,0,03334241668,2,Muhammad Ismail,0
DHA-Karachi,Karachi,0,Mr Muhammad Adnan,Siddiq estate,0,03411048000,0,Siddiqui Qureshi,0
A file # SZR-JN-421 of Sabzazar Plot (1 Kanal 13 Marla),Lahore,0,Mr Muhammad Ramzan,Eric Associates,0,00923004400,1,Mr Khatana,0
"Johar Town, Lahore",Lahore,0,Mr Wasay Khan,Moon estate consultant and Builder's,0,+9233541449,0,Abdul Kareem,0
Kashmir Highway Islamabad,Islamabad,0,Mr umair awan,Al Kareem,0,03345009036,42,Umair Awan,0
"Bahria Town, Lahore",Lahore,0,Mr Ijaz Ali,A2z Property,1,+9232442752,0,Ijaz Ali,0
"1st Floor Plaza No.2-A, 4th Avenue Phase-6, DHA Lahore.",Lahore,0,Mr Alli Hassan,Konstruct Marketing,0,03224431119,1,Usama Zaheer,0
"North Nazimabad, Karachi",Karachi,0,AHMER,SAEED UDDIN,0,03370398195,0,AHMER,0
I-14 Islamabad,Islamabad,0,Mr Rehan Ali,Noor Property,0,03135888917,1,Rehan Ali,0
"Bahria Heights, Rawalpindi",Rawalpindi,0,Mr malik imtiaz,F1 Real Estate,0,03343333792,0,Mr malik imtiaz,0
Gulshan-e-Iqbal Town Karachi,Karachi,0,Mr farhan hasan,HADI ESTATE SERVICE,1,03333969955,0,BURHAN HADI,0
F-6 Islamabad,Islamabad,0,Mr Ateeq Khan,Proxy Media,0,+9233676737,0,Arif Sadique,2
DHA Karchi,Karachi,0,Mr Fahad Masood,AL Masood Enterprises,0,03422185226,0,Fahad Masood,1
"Pak Arab Housing Society, Lahore",Lahore,0,Mr Asif Mughal,Ibne Hashim Associates,0,03154008850,1,Mr Asif Mughal,0
"DHA 9 Town, Lahore",Lahore,0,Mr Ali Younas,Haroon Associates Real Estate Counsultant,0,03227578998,1,Mr Ali Younas,0
Gulzar-e-Hijri Karachi,Karachi,0,Mr Adil Varind,Humna Associates,0,03338240434,0,Adil Varind,0
", United Arab Emirates",United Arab Emirates,0,Mr Maxhome Property,Maxhome Property,0,0503709998 ,0,Max Max,0
"Icon Valley, Lahore",Lahore,0,sawaid minhas,KS ESTATE & BUILDERS,0,03216085848,1,sawaid minhas,0
Nishat Commercial Area Karachi,Karachi,0,Mr Taimoor Vayani,Corporate Estate & Asset Management,0,03112357653,0,Obaid Iqbal,0
New Airport Town Islamabad,Islamabad,0,Mr Hafiz Ahsan,Magma City,0,03109129468,0,Hafiz,0
"Bahria Town, Lahore",Lahore,0,Mr Umair,Bismillah Developers,0,+923064101098,1,Mr Umair,0
Blue Area Islamabad,Islamabad,1,Mr Ammar Ahmed,Agency 21 International,0,+9233151718,0,Ammar Ahmed,0
Jubilee Town Lahore,Lahore,0,Mr Muhammad Naeem Chaudhry,Estate 21,1,03224009677,0,Muhammad Naeem,0
DHA Phase 3 Lahore,Lahore,0,Mr Muhammad Xaman,Kings Park Gwadar,0,0300 054 28,0,Kaneez Developers,0
"Kohinoor City, Faisalabad",Faisalabad,0,Mr Muhammad Haseeb,Pakistan Advertising Agency,0,+923096171990,0,Mr Muhammad Haseeb,1
Bahria Town Lahore,Lahore,0,Mr Usman Tariq,Kb Real Estate & Builders,1,03214337897,0,Usman Tariq,0
Bahria Enclave Islamabad,Islamabad,0,Mr Salman Ahmed,Madina Mall and Residency,0,03212419000,0,Salman Ahmed Khan,0
"Manzoor Colony, Karachi",Karachi,0,Mr Rukhsana bibi,Pakistan,0,03012123226,0,Mr Rukhsana bibi,0
Shah Faisal Colony Karachi,Karachi,0,Mr S.M Riaz,Think Different Agency,0,+9231431026,0,S.M Riaz,0
"Suite# T-15, 3rd Floor,, Mateen Shopper's Gallery,, Tariq Road",Karachi,0,Mr Adnan Mughal,3A's Properties By GNSA,0,+9230122518,0,Adnan Mughal,1
Raiwind Road Lahore,Lahore,0,Mr Hamad Ali,Lahore Fortress,1,03127097512,0,Hamad,0
Bahria Town Lahore,Lahore,0,Mr Naeem Sindhu,Bahria Town Consultant,0,03002488546,0,Muhammad Naeem Sindhu,0
"Bahria Town, Lahore",Lahore,0,Mr Awais Shazli,SHAZLI ESTATES & BUILDERS,0,0321166602,1,Mr Awais Shazli,0
Bahria Town Karachi,Karachi,0,Mr Shahrukh Arshad,Al Bahr & Associates,0,03223202034,0,ShahRukh Arshad,0
Abdul Hassan Road Karachi,Karachi,0,Mr Huzaiffa Babar,Humtv channel,0,03333501331,0,Duraid Siddiqui,0
Shadman City Bahawalpur,Bahawalpur,0,Mr Muhammad Hasnain,Individual,1,03134788817,0,Muhammad,0
"Faisalabad Road, Sheikhupura",Sheikhupura,0,Mr Tahir Farooq,Hafiz international Property Adviser,0,03004584610,3,Hafiz Yahya,0
"Ferozepur Road, Lahore",Lahore,0,Mr Waseem Sheikh,ST Associates,0,+9232177333,1,Waseem,0
G-13 Islamabad,Islamabad,0,Mr Muhammad Vaqas,Gwadar Brights,1,03125238901,0,Muhammad Vaqas,0
"Scheme 33, Karachi",Karachi,0,Mr Muhammad Shamim Ahmed,One Source,0,+923147710190,0,Mr Muhammad Shamim Ahmed,0
